{
    "links": {
        "self": "http://www.neowsapp.com/rest/v1/neo/3638504?api_key=iIulBulltgU6a56xZRHN4H3l9WmuAYTsLGpBGhQ2"
    },
    "id": "3638504",
    "neo_reference_id": "3638504",
    "name": "(2013 JW28)",
    "designation": "2013 JW28",
    "nasa_jpl_url": "http://ssd.jpl.nasa.gov/sbdb.cgi?sstr=3638504",
    "absolute_magnitude_h": 24.8,
    "estimated_diameter": {
        "kilometers": {
            "estimated_diameter_min": 0.0291443905,
            "estimated_diameter_max": 0.0651688382
        },
        "meters": {
            "estimated_diameter_min": 29.1443904535,
            "estimated_diameter_max": 65.1688382168
        },
        "miles": {
            "estimated_diameter_min": 0.018109479,
            "estimated_diameter_max": 0.0404940262
        },
        "feet": {
            "estimated_diameter_min": 95.6180819754,
            "estimated_diameter_max": 213.8085311752
        }
    },
    "is_potentially_hazardous_asteroid": false,
    "close_approach_data": [
        {
            "close_approach_date": "2013-04-16",
            "close_approach_date_full": "2013-Apr-16 13:34",
            "epoch_date_close_approach": 1366119240000,
            "relative_velocity": {
                "kilometers_per_second": "7.9474894923",
                "kilometers_per_hour": "28610.9621722158",
                "miles_per_hour": "17777.739245286"
            },
            "miss_distance": {
                "astronomical": "0.0507045415",
                "lunar": "19.7240666435",
                "kilometers": "7585291.407726605",
                "miles": "4713281.522992949"
            },
            "orbiting_body": "Earth"
        }
    ],
    "orbital_data": {
        "orbit_id": "5",
        "orbit_determination_date": "2017-04-06 08:45:50",
        "first_observation_date": "2013-05-10",
        "last_observation_date": "2013-05-15",
        "data_arc_in_days": 5,
        "observations_used": 16,
        "orbit_uncertainty": "9",
        "minimum_orbit_intersection": ".0119241",
        "jupiter_tisserand_invariant": "3.721",
        "epoch_osculation": "2456424.5",
        "eccentricity": ".4881759961058721",
        "semi_major_axis": "1.964327383726642",
        "inclination": "2.197809004133536",
        "ascending_node_longitude": "196.9359727642523",
        "orbital_period": "1005.586034639257",
        "perihelion_distance": "1.005389906497847",
        "perihelion_argument": "342.4742514597164",
        "aphelion_distance": "2.923264860955437",
        "perihelion_time": "2456377.641983257186",
        "mean_anomaly": "16.77517929479258",
        "mean_motion": ".3580001984903719",
        "equinox": "J2000",
        "orbit_class": {
            "orbit_class_type": "APO",
            "orbit_class_description": "Near-Earth asteroid orbits which cross the Earth’s orbit similar to that of 1862 Apollo",
            "orbit_class_range": "a (semi-major axis) > 1.0 AU; q (perihelion) < 1.017 AU"
        }
    },
    "is_sentry_object": false
}